    <HTML><HEAD><TITLE>Human Space Flight (HSF) - Realtime Data
    </TITLE>
         
    
    <LINK REL="stylesheet" HREF="/hsf_home_style.css" TYPE="text/css"><LINK REL="stylesheet" HREF="/realdata/tracking/clocks.css" TYPE="text/css"><!--
    ////    *_OVER.JS PROVIDES HTML FOR GRAPHICS    ////
    --><SCRIPT TYPE="text/javascript" LANGUAGE="javascript">
    
      var firstLevel = '<'+'script language="javascript" src="/!_js_files/hsf_realdata_over.js"></'+'script>';
    
    </SCRIPT>
    
    <!--
    ////    *_NAV.JS PROVIDES MOUSEOVERS    ////
    -->
    
    <SCRIPT TYPE="text/javascript" SRC="/!_js_files/hsf_realdata_nav.js" LANGUAGE="javascript"></SCRIPT>
    
      
    <SCRIPT LANGUAGE="javascript">
    <!---
    
    function buildArray(){
    var a = buildArray.arguments;
    for (i=0; i<a.length; i++){
    this[i] = a[i];
    }
    
    this.length = a.length;
    } 
    
    var urls1 = new buildArray("",
    "ksclive/index.html",
    "ksclive/kscv01.html",
    "ksclive/kscv02.html",
    "ksclive/kscv03.html",
    "ksclive/kscv04.html",
    "ksclive/kscv05.html",
    "ksclive/kscv06.html",
    "ksclive/kscv07.html",
    "ksclive/kscv08.html",
    "ksclive/kscv09.html",
    "ksclive/kscv10.html",
    "ksclive/kscv11.html",
    "ksclive/kscv12.html",
    "ksclive/kscv13.html",
    "ksclive/kscv14.html",
    "ksclive/kscv15.html"); 
    
    function go(which, num, win){
    n = which.selectedIndex;
    
    if (n != 0){
    var url = eval("urls" + num + "[n]")
    
    if (win){
    openWindow(url); 
    }
    
    else{ 
    location.href = url;
    }
    }
    }
    
    //-->
    </SCRIPT></HEAD><BODY ALINK="#ff0000" VLINK="#800000" LINK="#cc0000" TEXT="#000000" BGCOLOR="#ffffff" > 
    
    
         
    
    <!-- 
    ////    BEGIN --    ////
    ////    IMAGE MAP FOR 2ND LEVEL MENUS    ////
    -->
    
      <MAP NAME="level2menu"><AREA ONMOUSEOUT="timeoutId = setTimeout('menuLinks(0)',1);" ONMOUSEOVER="clearTimeout (timeoutId);" HREF="" ALT="" COORDS="0,-1,67,26" SHAPE="RECT"><AREA ONMOUSEOUT="timeoutId = setTimeout('menuLinks(0)',1);" ONMOUSEOVER="clearTimeout (timeoutId);" HREF="" ALT="" COORDS="67,-1,134,26" SHAPE="RECT"><AREA ONMOUSEOUT="timeoutId = setTimeout('menuLinks(0)',1);" ONMOUSEOVER="clearTimeout (timeoutId);" HREF="" ALT="" COORDS="134,-1,201,26" SHAPE="RECT"><AREA ONMOUSEOUT="timeoutId = setTimeout('menuLinks(0)',1);" ONMOUSEOVER="clearTimeout (timeoutId);" HREF="" ALT="" COORDS="201,-1,268,26" SHAPE="RECT"><AREA ONMOUSEOUT="timeoutId = setTimeout('menuLinks(0)',1);" ONMOUSEOVER="clearTimeout (timeoutId);" HREF="" ALT="" COORDS="268,-1,335,26" SHAPE="RECT"><AREA ONMOUSEOUT="timeoutId = setTimeout('menuLinks(0)',1);" ONMOUSEOVER="clearTimeout (timeoutId);" HREF="" ALT="" COORDS="335,-1,402,26" SHAPE="RECT"><AREA ONMOUSEOUT="timeoutId = setTimeout('menuLinks(0)',1);" ONMOUSEOVER="clearTimeout (timeoutId);" HREF="" ALT="" COORDS="402,-1,469,26" SHAPE="RECT"><AREA ONMOUSEOUT="timeoutId = setTimeout('menuLinks(0)',1);" ONMOUSEOVER="clearTimeout (timeoutId);" HREF="" ALT="" COORDS="469,-1,536,26" SHAPE="RECT"><AREA ONMOUSEOUT="timeoutId = setTimeout('menuLinks(0)',1);" ONMOUSEOVER="clearTimeout (timeoutId);" HREF="" ALT="" COORDS="536,-1,600,26" SHAPE="RECT"></MAP>
    
    <!-- 
    ////    END --    ////
    ////    IMAGE MAP FOR 2ND LEVEL MENUS    ////
    -->
    
    <TABLE ALIGN="CENTER" BORDER="0" WIDTH="600" CELLPADDING="0" CELLSPACING="0"><TR><TD><IMG USEMAP="#Map" BORDER="0" WIDTH="600" HEIGHT="55" SRC="/graphics/new_home/hsf_hdr_main2.gif"><MAP NAME="Map"><AREA TITLE="Return to Human Space Flight home page" HREF="/index.html" ALT="Return to Human Space Flight home page" COORDS="424,26,587,46" SHAPE="RECT"></MAP></TD></TR><!-- 
    ////    BEGIN -- 1ST LEVEL MENU OPTIONS    ////
    ////    REFERENCES *_OVER.JS WHICH PROVIDES HTML FOR GRAPHICS    ////
    ////    THE VARIABLE firstLevel IS CALLED INSIDE THE HEAD TAG    ////
    --><TR><TD WIDTH="600" VALIGN="TOP" COLSPAN="3"> 
          <SCRIPT LANGUAGE="javascript">
            <!-- 
              document.write(firstLevel)
            //-->
          </SCRIPT></TD></TR><!-- 
    ////    END -- 1ST LEVEL MENU OPTIONS    ////
    --><!-- 
    ////    BEGIN -- 2ND LEVEL MENU OPTIONS    ////
    ////    THIS SECTION CALLS THE MENULINKS FUNCTION    ////
    --><TR><TD WIDTH="600" VALIGN="TOP" COLSPAN="3"><IMG NAME="low1" ALT="" USEMAP="#level2menu" BORDER="0" WIDTH="600" HEIGHT="24" SRC="/graphics/new_home/hsf_l2.gif"></TD></TR><!-- 
    ////    END -- 2ND LEVEL MENU OPTIONS    ////
    --><TR><TD><IMG WIDTH="600" HEIGHT="5" SRC="/graphics/new_home/hsf_hdr_btm.gif"></TD></TR></TABLE><BR><A NAME="skipLinks"></A>
    
    
    <!--Begin Main Content Area Here-->
    
        
    <table width="600" border="0" cellspacing="0" cellpadding="0" align="center">
        
          <tr>
        
            <td>
        
            <PRE>
    
  <B> ISS  TRAJECTORY DATA</B>
 
   Lift off time (UTC)  :  N/A
   Area (sq ft)  :  10.7639
   Drag Coefficient (Cd)  :   2.00
   Monthly MSFC 50% solar flux (F10.7-jansky)  :   102.5
   Monthly MSFC 50% earth geomagnetic index (Kp)  :   3.055
   ET - UTC  (sec) :   67.18
   UT1 - UTC (sec) :    0.00
 
 
   Maneuvers contained within the current ephemeris are as follows:
 
 
   IMPULSIVE TIG (GMT)   M50 DVx(FPS)      LVLH DVx(FPS)      DVmag(FPS) 
   IMPULSIVE TIG (MET)   M50 DVy(FPS)      LVLH DVy(FPS)      Invar Sph HA
   DT                    M50 DVz(FPS)      LVLH DVz(FPS)      Invar Sph HP 
   ------------------------------------------------------------------------
   070/23:10:00.000           0.0               0.0              0.0    
   N/A                        0.0               0.0              220.6  
   000/00:00:00.000           0.0               0.0              215.5  
   
   077/03:58:30.000           0.0               0.0              0.0    
   N/A                        0.0               0.0              220.3  
   000/00:00:00.000           0.0               0.0              215.2  
   
   078/21:26:42.000           0.0               0.0              0.0    
   N/A                        0.0               0.0              220.5  
   000/00:00:00.000           0.0               0.0              215.0  
   
   079/03:12:07.000           0.0               0.0              0.0    
   N/A                        0.0               0.0              220.4  
   000/00:00:00.000           0.0               0.0              215.0  
   
   080/10:25:00.000           0.0               0.0              0.0    
   N/A                        0.0               0.0              220.5  
   000/00:00:00.000           0.0               0.0              214.9  
   
   084/04:20:00.000           0.0               0.0              0.0    
   N/A                        0.0               0.0              220.6  
   000/00:00:00.000           0.0               0.0              214.6  
   
 
 
    Coasting Arc #1 (Orbit 2947)
    ---------------------------------------
 
    Vector Time (GMT): 2016/069/12:00:00.000
    Vector Time (MET): N/A
    Weight (LBS)     : 890369.9
 
              M50 Cartesian                         M50 Keplerian  
    -----------------------------------       --------------------------------
     X    =       -3354438.51                 A    =         6782593.82  meter
     Y    =       -4212817.29  meter          E    =           .0008910
     Z    =        4118346.05                 I    =           51.54314
     XDOT =       6505.908819                 Wp   =          109.50502
     YDOT =      -1469.449447  meter/sec      RA   =          194.07163  deg
     ZDOT =       3786.376756                 TA   =          301.36849
                                              MA   =          301.45564
                                              Ha   =            220.602  n.mi
                                              Hp   =            215.566
 
              M50 Cartesian                         J2K Cartesian  
    -----------------------------------       --------------------------------
     X    =      -11005375.70                 X    =        -3327085.37
     Y    =      -13821579.05  feet           Y    =        -4250175.25  meter
     Z    =       13511634.04                 Z    =         4102118.33
     XDOT =      21344.845208                 XDOT =        6503.464646
     YDOT =      -4821.028371  feet/sec       YDOT =       -1396.709105  meter/sec
     ZDOT =      12422.495920                 ZDOT =        3817.974785
 
              TDR Cartesian                         TDR Cartesian  
    -----------------------------------       --------------------------------
     X    =       -7631786.08                 X    =        -2326168.40
     Y    =      -15993455.99  feet           Y    =        -4874805.39  meter
     Z    =       13441867.53                 Z    =         4097081.22
     XDOT =      20636.992536                 XDOT =        6290.155325
     YDOT =        735.056031  feet/sec       YDOT =         224.045078  meter/sec
     ZDOT =      12559.832249                 ZDOT =        3828.236870
  
  
    The mean element set is posted at the UTC for which position is
    just north of the next ascending node relative to the above
    vector time
 
 
    TWO LINE MEAN ELEMENT SET
  
    ISS
    1 25544U 98067A   16069.55530613  .00016717  00000-0  10270-3 0  9007
    2 25544  51.6423 194.9008 0001926 254.7925 105.3015 15.53996148 29485
  
  
    Satellite: ISS
    Catalog Number: 25544
    Epoch time:      16069.55530613   =   yrday.fracday
    Element set:     900
    Inclination:       51.6423  deg
    RA of node:       194.9008  deg
    Eccentricity:     .0001926     
    Arg of perigee:   254.7925  deg
    Mean anomaly:     105.3015  deg
    Mean motion:   15.53996148  rev/day
    Decay rate:    1.67170E-04  rev/day^2
    Epoch rev:            2948
    Checksum:              316
 
